CCSDS_OMM_VERS = 2.0
CREATION_DATE  = 
ORIGINATOR     = 

OBJECT_NAME    = STARLINK-36891
OBJECT_ID      = 2026-040K
CENTER_NAME    = EARTH
REF_FRAME      = TEME
TIME_SYSTEM    = UTC
MEAN_ELEMENT_THEORY = SGP/SGP4

EPOCH          = 2026-03-14T14:00:01.999872
MEAN_MOTION    = 15.94460836
ECCENTRICITY   = .00014011
INCLINATION    = 97.2724
RA_OF_ASC_NODE = 22.1940
ARG_OF_PERICENTER = 97.9630
MEAN_ANOMALY   = 141.7713

EPHEMERIS_TYPE = 0
CLASSIFICATION_TYPE = U
NORAD_CAT_ID   = 68024
ELEMENT_SET_NO = 999
REV_AT_EPOCH   = 321
BSTAR          = -.42092513E-2
MEAN_MOTION_DOT = -.1564255E-1
MEAN_MOTION_DDOT = .70695259E-3

CCSDS_OMM_VERS = 2.0
CREATION_DATE  = 
ORIGINATOR     = 

OBJECT_NAME    = STARLINK-36378
OBJECT_ID      = 2026-040L
CENTER_NAME    = EARTH
REF_FRAME      = TEME
TIME_SYSTEM    = UTC
MEAN_ELEMENT_THEORY = SGP/SGP4

EPOCH          = 2026-03-14T14:00:01.999872
MEAN_MOTION    = 15.94533609
ECCENTRICITY   = .00014399
INCLINATION    = 97.2744
RA_OF_ASC_NODE = 22.1989
ARG_OF_PERICENTER = 97.8106
MEAN_ANOMALY   = 150.5465

EPHEMERIS_TYPE = 0
CLASSIFICATION_TYPE = U
NORAD_CAT_ID   = 68025
ELEMENT_SET_NO = 999
REV_AT_EPOCH   = 316
BSTAR          = -.42119535E-2
MEAN_MOTION_DOT = -.1571218E-1
MEAN_MOTION_DDOT = .71334108E-3

CCSDS_OMM_VERS = 2.0
CREATION_DATE  = 
ORIGINATOR     = 

OBJECT_NAME    = STARLINK-36884
OBJECT_ID      = 2026-040M
CENTER_NAME    = EARTH
REF_FRAME      = TEME
TIME_SYSTEM    = UTC
MEAN_ELEMENT_THEORY = SGP/SGP4

EPOCH          = 2026-03-14T14:00:01.999872
MEAN_MOTION    = 15.94494454
ECCENTRICITY   = .00014157
INCLINATION    = 97.2736
RA_OF_ASC_NODE = 22.1961
ARG_OF_PERICENTER = 98.9032
MEAN_ANOMALY   = 145.2449

EPHEMERIS_TYPE = 0
CLASSIFICATION_TYPE = U
NORAD_CAT_ID   = 68026
ELEMENT_SET_NO = 999
REV_AT_EPOCH   = 321
BSTAR          = -.42211743E-2
MEAN_MOTION_DOT = -.1571396E-1
MEAN_MOTION_DDOT = .71319967E-3

CCSDS_OMM_VERS = 2.0
CREATION_DATE  = 
ORIGINATOR     = 

OBJECT_NAME    = STARLINK-36940
OBJECT_ID      = 2026-040N
CENTER_NAME    = EARTH
REF_FRAME      = TEME
TIME_SYSTEM    = UTC
MEAN_ELEMENT_THEORY = SGP/SGP4

EPOCH          = 2026-03-14T14:00:01.999872
MEAN_MOTION    = 15.94580710
ECCENTRICITY   = .00013533
INCLINATION    = 97.2794
RA_OF_ASC_NODE = 22.2287
ARG_OF_PERICENTER = 106.5201
MEAN_ANOMALY   = 211.9234

EPHEMERIS_TYPE = 0
CLASSIFICATION_TYPE = U
NORAD_CAT_ID   = 68027
ELEMENT_SET_NO = 999
REV_AT_EPOCH   = 331
BSTAR          = -.50796219E-2
MEAN_MOTION_DOT = -.1895372E-1
MEAN_MOTION_DDOT = .10125229E-2

CCSDS_OMM_VERS = 2.0
CREATION_DATE  = 
ORIGINATOR     = 

OBJECT_NAME    = STARLINK-36253
OBJECT_ID      = 2026-040P
CENTER_NAME    = EARTH
REF_FRAME      = TEME
TIME_SYSTEM    = UTC
MEAN_ELEMENT_THEORY = SGP/SGP4

EPOCH          = 2026-03-14T14:00:01.999872
MEAN_MOTION    = 15.80953694
ECCENTRICITY   = .00015928
INCLINATION    = 97.2843
RA_OF_ASC_NODE = 22.0262
ARG_OF_PERICENTER = 50.1154
MEAN_ANOMALY   = 161.1810

EPHEMERIS_TYPE = 0
CLASSIFICATION_TYPE = U
NORAD_CAT_ID   = 68028
ELEMENT_SET_NO = 999
REV_AT_EPOCH   = 331
BSTAR          = -.15677933E-2
MEAN_MOTION_DOT = -.292477E-2
MEAN_MOTION_DDOT = 0

CCSDS_OMM_VERS = 2.0
CREATION_DATE  = 
ORIGINATOR     = 

OBJECT_NAME    = STARLINK-36944
OBJECT_ID      = 2026-040Q
CENTER_NAME    = EARTH
REF_FRAME      = TEME
TIME_SYSTEM    = UTC
MEAN_ELEMENT_THEORY = SGP/SGP4

EPOCH          = 2026-03-14T14:00:01.999872
MEAN_MOTION    = 15.94592365
ECCENTRICITY   = .00014176
INCLINATION    = 97.2733
RA_OF_ASC_NODE = 22.1989
ARG_OF_PERICENTER = 95.0766
MEAN_ANOMALY   = 157.1648

EPHEMERIS_TYPE = 0
CLASSIFICATION_TYPE = U
NORAD_CAT_ID   = 68029
ELEMENT_SET_NO = 999
REV_AT_EPOCH   = 321
BSTAR          = -.42210211E-2
MEAN_MOTION_DOT = -.1579399E-1
MEAN_MOTION_DDOT = .7206879E-3

CCSDS_OMM_VERS = 2.0
CREATION_DATE  = 
ORIGINATOR     = 

OBJECT_NAME    = STARLINK-36942
OBJECT_ID      = 2026-040R
CENTER_NAME    = EARTH
REF_FRAME      = TEME
TIME_SYSTEM    = UTC
MEAN_ELEMENT_THEORY = SGP/SGP4

EPOCH          = 2026-03-14T14:00:01.999872
MEAN_MOTION    = 15.94631998
ECCENTRICITY   = .00014644
INCLINATION    = 97.2749
RA_OF_ASC_NODE = 22.2020
ARG_OF_PERICENTER = 97.4100
MEAN_ANOMALY   = 159.1221

EPHEMERIS_TYPE = 0
CLASSIFICATION_TYPE = U
NORAD_CAT_ID   = 68030
ELEMENT_SET_NO = 999
REV_AT_EPOCH   = 321
BSTAR          = -.42264133E-2
MEAN_MOTION_DOT = -.1584686E-1
MEAN_MOTION_DDOT = .72547046E-3

CCSDS_OMM_VERS = 2.0
CREATION_DATE  = 
ORIGINATOR     = 

OBJECT_NAME    = STARLINK-36913
OBJECT_ID      = 2026-040S
CENTER_NAME    = EARTH
REF_FRAME      = TEME
TIME_SYSTEM    = UTC
MEAN_ELEMENT_THEORY = SGP/SGP4

EPOCH          = 2026-03-14T14:00:01.999872
MEAN_MOTION    = 15.94677350
ECCENTRICITY   = .00014347
INCLINATION    = 97.2753
RA_OF_ASC_NODE = 22.2037
ARG_OF_PERICENTER = 101.9220
MEAN_ANOMALY   = 158.8739

EPHEMERIS_TYPE = 0
CLASSIFICATION_TYPE = U
NORAD_CAT_ID   = 68031
ELEMENT_SET_NO = 999
REV_AT_EPOCH   = 321
BSTAR          = -.42336933E-2
MEAN_MOTION_DOT = -.1591148E-1
MEAN_MOTION_DDOT = .73131537E-3

CCSDS_OMM_VERS = 2.0
CREATION_DATE  = 
ORIGINATOR     = 

OBJECT_NAME    = STARLINK-36935
OBJECT_ID      = 2026-040T
CENTER_NAME    = EARTH
REF_FRAME      = TEME
TIME_SYSTEM    = UTC
MEAN_ELEMENT_THEORY = SGP/SGP4

EPOCH          = 2026-03-14T14:00:01.999872
MEAN_MOTION    = 15.95031406
ECCENTRICITY   = .00014179
INCLINATION    = 97.2774
RA_OF_ASC_NODE = 22.2160
ARG_OF_PERICENTER = 106.0081
MEAN_ANOMALY   = 184.2627

EPHEMERIS_TYPE = 0
CLASSIFICATION_TYPE = U
NORAD_CAT_ID   = 68032
ELEMENT_SET_NO = 999
REV_AT_EPOCH   = 331
BSTAR          = -.42371045E-2
MEAN_MOTION_DOT = -.1622251E-1
MEAN_MOTION_DDOT = .76089704E-3

CCSDS_OMM_VERS = 2.0
CREATION_DATE  = 
ORIGINATOR     = 

OBJECT_NAME    = STARLINK-36947
OBJECT_ID      = 2026-040U
CENTER_NAME    = EARTH
REF_FRAME      = TEME
TIME_SYSTEM    = UTC
MEAN_ELEMENT_THEORY = SGP/SGP4

EPOCH          = 2026-03-14T14:00:01.999872
MEAN_MOTION    = 15.94740746
ECCENTRICITY   = .00013959
INCLINATION    = 97.2755
RA_OF_ASC_NODE = 22.2052
ARG_OF_PERICENTER = 101.1111
MEAN_ANOMALY   = 163.3668

EPHEMERIS_TYPE = 0
CLASSIFICATION_TYPE = U
NORAD_CAT_ID   = 68033
ELEMENT_SET_NO = 999
REV_AT_EPOCH   = 321
BSTAR          = -.42267684E-2
MEAN_MOTION_DOT = -.1593847E-1
MEAN_MOTION_DDOT = .73410549E-3

CCSDS_OMM_VERS = 2.0
CREATION_DATE  = 
ORIGINATOR     = 

OBJECT_NAME    = STARLINK-36939
OBJECT_ID      = 2026-040V
CENTER_NAME    = EARTH
REF_FRAME      = TEME
TIME_SYSTEM    = UTC
MEAN_ELEMENT_THEORY = SGP/SGP4

EPOCH          = 2026-03-14T14:00:01.999872
MEAN_MOTION    = 15.94951127
ECCENTRICITY   = .00013759
INCLINATION    = 97.2777
RA_OF_ASC_NODE = 22.2128
ARG_OF_PERICENTER = 106.0661
MEAN_ANOMALY   = 174.7214

EPHEMERIS_TYPE = 0
CLASSIFICATION_TYPE = U
NORAD_CAT_ID   = 68034
ELEMENT_SET_NO = 999
REV_AT_EPOCH   = 321
BSTAR          = -.42101429E-2
MEAN_MOTION_DOT = -.1605257E-1
MEAN_MOTION_DDOT = .74552928E-3

CCSDS_OMM_VERS = 2.0
CREATION_DATE  = 
ORIGINATOR     = 

OBJECT_NAME    = STARLINK-36943
OBJECT_ID      = 2026-040W
CENTER_NAME    = EARTH
REF_FRAME      = TEME
TIME_SYSTEM    = UTC
MEAN_ELEMENT_THEORY = SGP/SGP4

EPOCH          = 2026-03-14T14:00:01.999872
MEAN_MOTION    = 15.94784182
ECCENTRICITY   = .0001037
INCLINATION    = 97.2793
RA_OF_ASC_NODE = 22.2226
ARG_OF_PERICENTER = 112.7331
MEAN_ANOMALY   = 189.7181

EPHEMERIS_TYPE = 0
CLASSIFICATION_TYPE = U
NORAD_CAT_ID   = 68035
ELEMENT_SET_NO = 999
REV_AT_EPOCH   = 326
BSTAR          = -.42099817E-2
MEAN_MOTION_DOT = -.1591141E-1
MEAN_MOTION_DDOT = .73212412E-3

