STARLINK-36891          
1 68024U 26040K   26073.58335648 -.01564255  70695-3 -42093-2 0  9992
2 68024  97.2724  22.1940 0001401  97.9630 141.7713 15.94460836  3217
STARLINK-36378          
1 68025U 26040L   26073.58335648 -.01571218  71334-3 -42120-2 0  9992
2 68025  97.2744  22.1989 0001439  97.8106 150.5465 15.94533609  3166
STARLINK-36884          
1 68026U 26040M   26073.58335648 -.01571396  71320-3 -42212-2 0  9997
2 68026  97.2736  22.1961 0001415  98.9032 145.2449 15.94494454  3215
STARLINK-36940          
1 68027U 26040N   26073.58335648 -.01895372  10125-2 -50796-2 0  9992
2 68027  97.2794  22.2287 0001353 106.5201 211.9234 15.94580710  3312
STARLINK-36253          
1 68028U 26040P   26073.58335648 -.00292477  00000+0 -15678-2 0  9997
2 68028  97.2843  22.0262 0001592  50.1154 161.1810 15.80953694  3311
STARLINK-36944          
1 68029U 26040Q   26073.58335648 -.01579399  72069-3 -42210-2 0  9990
2 68029  97.2733  22.1989 0001417  95.0766 157.1648 15.94592365  3212
STARLINK-36942          
1 68030U 26040R   26073.58335648 -.01584686  72547-3 -42264-2 0  9997
2 68030  97.2749  22.2020 0001464  97.4100 159.1221 15.94631998  3213
STARLINK-36913          
1 68031U 26040S   26073.58335648 -.01591148  73132-3 -42337-2 0  9991
2 68031  97.2753  22.2037 0001434 101.9220 158.8739 15.94677350  3210
STARLINK-36935          
1 68032U 26040T   26073.58335648 -.01622251  76090-3 -42371-2 0  9996
2 68032  97.2774  22.2160 0001417 106.0081 184.2627 15.95031406  3310
STARLINK-36947          
1 68033U 26040U   26073.58335648 -.01593847  73411-3 -42268-2 0  9994
2 68033  97.2755  22.2052 0001395 101.1111 163.3668 15.94740746  3210
STARLINK-36939          
1 68034U 26040V   26073.58335648 -.01605257  74553-3 -42101-2 0  9998
2 68034  97.2777  22.2128 0001375 106.0661 174.7214 15.94951127  3211
STARLINK-36943          
1 68035U 26040W   26073.58335648 -.01591141  73212-3 -42100-2 0  9995
2 68035  97.2793  22.2226 0001037 112.7331 189.7181 15.94784182  3261
